[{"OBJECT_NAME":"STARLINK-2579","OBJECT_ID":"2021-040AH","EPOCH":"2026-03-09T12:53:30.590304","MEAN_MOTION":15.30221096,"ECCENTRICITY":0.00011482,"INCLINATION":53.1596,"RA_OF_ASC_NODE":178.8689,"ARG_OF_PERICENTER":103.6653,"MEAN_ANOMALY":256.4476,"EPHEMERIS_TYPE":0,"CLASSIFICATION_TYPE":"U","NORAD_CAT_ID":48459,"ELEMENT_SET_NO":999,"REV_AT_EPOCH":26667,"BSTAR":0.00055585355,"MEAN_MOTION_DOT":0.0001615,"MEAN_MOTION_DDOT":0},{"OBJECT_NAME":"LUR-1","OBJECT_ID":"2024-149AQ","EPOCH":"2026-03-09T19:05:45.284064","MEAN_MOTION":15.28658648,"ECCENTRICITY":0.00027765,"INCLINATION":97.379,"RA_OF_ASC_NODE":148.4255,"ARG_OF_PERICENTER":309.1571,"MEAN_ANOMALY":50.9421,"EPHEMERIS_TYPE":0,"CLASSIFICATION_TYPE":"U","NORAD_CAT_ID":60506,"ELEMENT_SET_NO":999,"REV_AT_EPOCH":8678,"BSTAR":0.0003298462,"MEAN_MOTION_DOT":9.121e-5,"MEAN_MOTION_DDOT":0}]
