STARLINK-2579           
1 48459U 21040AH  26068.53715961  .00016150  00000+0  55585-3 0  9999
2 48459  53.1596 178.8689 0001148 103.6653 256.4476 15.30221096266676
LUR-1                   
1 60506U 24149AQ  26068.79566301  .00009121  00000+0  32985-3 0  9998
2 60506  97.3790 148.4255 0002777 309.1571  50.9421 15.28658648 86785
